EUTELSAT 7A             
1 28187U 04008A   25296.09285373  .00000115  00000+0  00000+0 0  9994
2 28187   5.2255  74.8259 0000840 107.9873 103.1989  1.00270153 78970
EUTELSAT 174A           
1 28924U 05052A   25296.08366703  .00000022  00000+0  00000+0 0  9996
2 28924   3.6154  79.4511 0006122 131.1279  25.3848  1.00269320 49958
EUTELSAT HOTBIRD 13B    
1 29270U 06032A   25296.14489384  .00000167  00000+0  00000+0 0  9998
2 29270   1.0451  84.8023 0003944 119.6356 272.6463  1.00273139 44935
EUTELSAT HOTBIRD 13C    
1 33459U 08065A   25296.11798718 -.00000088  00000+0  00000+0 0  9994
2 33459   2.3372  81.9806 0005861 149.6572 190.1598  1.00272346 44960
EUTELSAT 36B            
1 36101U 09065A   25296.13046725  .00000122  00000+0  00000+0 0  9996
2 36101   0.0517 357.4937 0006051 219.2027 272.6210  1.00275529 58339
EUTELSAT KA-SAT 9A      
1 37258U 10069A   25295.97949549  .00000072  00000+0  00000+0 0  9997
2 37258   0.0579 321.6459 0002407 217.0837 214.5529  1.00269178 41624
EUTELSAT 7 WEST A       
1 37816U 11051A   25296.11902719 -.00000049  00000+0  00000+0 0  9999
2 37816   0.0909  45.0843 0006298 160.8877 221.3901  1.00272463 51505
EUTELSAT 16A            
1 37836U 11057A   25296.16294888  .00000115  00000+0  00000+0 0  9996
2 37836   0.0654 355.9254 0005584 221.7320 248.8819  1.00273626  4951
